IRIDIUM 155             
1 43573U 18061E   22249.57818459  .00000133  00000+0  40319-4 0  9991
2 43573  86.3915 273.2089 0002221  99.6652 260.4794 14.34217189215618
IRIDIUM 154             
1 43574U 18061F   22249.62892555  .00000139  00000+0  42569-4 0  9992
2 43574  86.3920 273.2549 0002139  84.7603 275.3837 14.34216659215675
IRIDIUM 163             
1 43575U 18061G   22249.60988933  .00000101  00000+0  29030-4 0  9994
2 43575  86.3917 273.2206 0002597  87.8018 272.3475 14.34216940215649
IRIDIUM 156             
1 43576U 18061H   22249.58451193  .00000083  00000+0  22587-4 0  9994
2 43576  86.3919 273.2367 0002537  95.7184 264.4301 14.34215169215637
IRIDIUM 164             
1 43577U 18061J   22250.47248719  .00000124  00000+0  37165-4 0  9997
2 43577  86.3918 272.8844 0002268  84.4348 275.7106 14.34218523215804
IRIDIUM 159             
1 43578U 18061K   22250.02215213  .00000108  00000+0  31670-4 0  9999
2 43578  86.3916 273.0386 0002198  86.1272 274.0175 14.34215687215709
IRIDIUM 180             
1 43922U 19002A   22249.81235333  .00000193  00000+0  61677-4 0  9992
2 43922  86.4007 210.0104 0002364  71.6583 288.4870 14.34217941191284
IRIDIUM 176             
1 43923U 19002B   22249.82229978  .00000649  00000+0  99053-4 0  9997
2 43923  86.6141 210.0427 0002437  86.3645 273.7851 14.72252089196305
IRIDIUM 168             
1 43924U 19002C   22249.80600168  .00000191  00000+0  61015-4 0  9999
2 43924  86.4008 210.0513 0002159  79.4571 280.6868 14.34215195191264
IRIDIUM 173             
1 43925U 19002D   22249.44447856  .00000190  00000+0  60867-4 0  9996
2 43925  86.4005 210.1475 0002257  79.5064 280.6386 14.34221024191192
IRIDIUM 169             
1 43926U 19002E   22249.68317048  .00000141  00000+0  39466-4 0  9999
2 43926  86.4198 241.6235 0003941 175.0118 185.1121 14.38606163191890
IRIDIUM 172             
1 43927U 19002F   22249.99628787  .00000190  00000+0  60616-4 0  9994
2 43927  86.4007 209.9210 0002249  77.6286 282.5161 14.34217963191284
IRIDIUM 175             
1 43928U 19002G   22249.95206617  .00000633  00000+0  96414-4 0  9992
2 43928  86.6145 209.8214 0002327  84.7308 275.4174 14.72256535196318
IRIDIUM 171             
1 43929U 19002H   22250.04702620  .00000185  00000+0  59008-4 0  9990
2 43929  86.4016 210.0527 0002136  79.3176 280.8260 14.34216891191282
IRIDIUM 170             
1 43930U 19002J   22249.82848989  .00000642  00000+0  97966-4 0  9998
2 43930  86.6141 210.0454 0002385  89.5609 270.5881 14.72253361196313
IRIDIUM 167             
1 43931U 19002K   22249.83138310  .00000196  00000+0  62866-4 0  9995
2 43931  86.4007 209.9999 0002249  75.1214 285.0231 14.34217742191255
